VCC A                   
1 44428U 98067QN  19321.57616642  .00007188  00000-0  11812-3 0  9995
2 44428  51.6419 318.7205 0002246 275.1164  84.9570 15.53549937 21373
ENTRYSAT                
1 44429U 98067QP  19322.52935504  .00009627  00000-0  15394-3 0  9992
2 44429  51.6413 313.8342 0001929 266.1780  93.8990 15.53861688 21529
VCC C                   
1 44430U 98067QQ  19321.49788558  .00010911  00000-0  17250-3 0  9995
2 44430  51.6416 318.9469 0002108 280.3245  79.7508 15.54019839 20198
VCC B                   
1 44431U 98067QR  19321.38494304  .00008018  00000-0  13095-3 0  9995
2 44431  51.6420 319.6918 0002395 267.4914  92.5803 15.53541367 21285
